{
    "satellites": [
        {
            "name": "starlink378",
            "title": "Starlink-378 (G17-22)",
            "tle": [
                "1 70510C 26086AA  26117.92895833 -.01852700  00000+0 -49551-2 0  1171",
                "2 70510  97.2765 153.4012 0001354  65.7981 275.0997 15.95431805    17"
            ],
            "stdMag": 5,
            "noradId": "70510",
            "intDes": null,
            "tleUrl": "http://celestrak.org/NORAD/elements/supplemental/sup-gp.php?FILE=starlink&FORMAT=tle",
            "launchDate": "2026-04-19T16:03:09.000Z",
            "active": true,
            "batch": [
                {
                    "noradId": "70510",
                    "tle": [
                        "1 70510C 26086AA  26117.92895833 -.01852700  00000+0 -49551-2 0  1171",
                        "2 70510  97.2765 153.4012 0001354  65.7981 275.0997 15.95431805    17"
                    ]
                },
                {
                    "noradId": "70509",
                    "tle": [
                        "1 70509C 26086Z   26117.94423611 -.01812500  00000+0 -50323-2 0  1175",
                        "2 70509  97.2772 153.4119 0001382  68.5188 347.3234 15.94700317    15"
                    ]
                },
                {
                    "noradId": "70506",
                    "tle": [
                        "1 70506C 26086W   26117.94840278 -.01825900  00000+0 -50390-2 0  1176",
                        "2 70506  97.2770 153.4174 0001521  66.8384  15.5771 15.94822166    12"
                    ]
                },
                {
                    "noradId": "70508",
                    "tle": [
                        "1 70508C 26086Y   26117.98451389 -.01818600  00000+0 -50192-2 0  1172",
                        "2 70508  97.2766 153.4573 0001321  71.5833 220.5875 15.94817773    13"
                    ]
                },
                {
                    "noradId": "70507",
                    "tle": [
                        "1 70507C 26086X   26117.94770833 -.01817900  00000+0 -49151-2 0  1170",
                        "2 70507  97.2770 153.4203 0001388  71.0206  15.3291 15.95208247    12"
                    ]
                },
                {
                    "noradId": "70505",
                    "tle": [
                        "1 70505C 26086V   26117.94701389 -.01830400  00000+0 -49821-2 0  1172",
                        "2 70505  97.2768 153.4183 0001511  67.4929  12.2147 15.95087596    11"
                    ]
                },
                {
                    "noradId": "70504",
                    "tle": [
                        "1 70504C 26086U   26117.91923611 -.01822200  00000+0 -51000-2 0  1173",
                        "2 70504  97.2774 153.3823 0001455  82.4631 183.9224 15.94552567    17"
                    ]
                },
                {
                    "noradId": "70503",
                    "tle": [
                        "1 70503C 26086T   26117.95118056 -.01807100  00000+0 -50549-2 0  1174",
                        "2 70503  97.2771 153.4181 0001381  71.6696  20.7764 15.94555353    13"
                    ]
                },
                {
                    "noradId": "70502",
                    "tle": [
                        "1 70502C 26086S   26117.99076389 -.01771300  00000+0 -50578-2 0  1173",
                        "2 70502  97.2769 153.4579 0001090  75.4172 238.2974 15.94143190    19"
                    ]
                },
                {
                    "noradId": "70501",
                    "tle": [
                        "1 70501C 26086R   26117.98868056 -.01791600  00000+0 -51493-2 0  1173",
                        "2 70501  97.2774 153.4549 0001182  72.6999 226.4890 15.94028233    15"
                    ]
                },
                {
                    "noradId": "70500",
                    "tle": [
                        "1 70500C 26086Q   26117.95118056 -.01794000  00000+0 -51535-2 0  1171",
                        "2 70500  97.2773 153.4130 0001425  64.9776  16.1858 15.94040053    18"
                    ]
                },
                {
                    "noradId": "70499",
                    "tle": [
                        "1 70499C 26086P   26117.96923611 -.01778800  00000+0 -51637-2 0  1173",
                        "2 70499  97.2778 153.4318 0001586  77.3131 104.8294 15.93830097    12"
                    ]
                },
                {
                    "noradId": "70498",
                    "tle": [
                        "1 70498C 26086N   26117.94076389 -.01791100  00000+0 -52451-2 0  1174",
                        "2 70498  97.2780 153.3988 0001140  76.4484 297.2791 15.93668587    15"
                    ]
                },
                {
                    "noradId": "70497",
                    "tle": [
                        "1 70497C 26086M   26117.97756944 -.01774000  00000+0 -51945-2 0  1175",
                        "2 70497  97.2783 153.4399 0001568  79.6556 147.7493 15.93661026    12"
                    ]
                },
                {
                    "noradId": "70496",
                    "tle": [
                        "1 70496C 26086L   26117.97618056 -.01768000  00000+0 -52476-2 0  1178",
                        "2 70496  97.2783 153.4360 0001525  78.1539 135.8304 15.93396140    18"
                    ]
                },
                {
                    "noradId": "70495",
                    "tle": [
                        "1 70495C 26086K   26117.93868056 -.01780700  00000+0 -52859-2 0  1176",
                        "2 70495  97.2788 153.3946 0001171  80.9417 275.4572 15.93400780    18"
                    ]
                },
                {
                    "noradId": "70494",
                    "tle": [
                        "1 70494C 26086J   26117.91784722 -.01794300  00000+0 -53426-2 0  1172",
                        "2 70494  97.2788 153.3711 0001492  79.8715 154.4346 15.93347443    12"
                    ]
                },
                {
                    "noradId": "70493",
                    "tle": [
                        "1 70493C 26086H   26117.95326389 -.01794800  00000+0 -54192-2 0  1172",
                        "2 70493  97.2788 153.4081 0001351  70.0313   4.7267 15.93078536    16"
                    ]
                },
                {
                    "noradId": "70492",
                    "tle": [
                        "1 70492C 26086G   26117.93520833 -.01817300  00000+0 -55116-2 0  1177",
                        "2 70492  97.2792 153.3878 0001256  87.6465 241.4378 15.93003598    18"
                    ]
                },
                {
                    "noradId": "70491",
                    "tle": [
                        "1 70491C 26086F   26117.96020833 -.01806200  00000+0 -55842-2 0  1177",
                        "2 70491  97.2789 153.4121 0001507  63.8444  43.0963 15.92623462    10"
                    ]
                },
                {
                    "noradId": "70490",
                    "tle": [
                        "1 70490C 26086E   26117.98868056 -.01789600  00000+0 -55229-2 0  1178",
                        "2 70490  97.2792 153.4446 0001435  80.0856 192.8078 15.92649639    15"
                    ]
                },
                {
                    "noradId": "70489",
                    "tle": [
                        "1 70489C 26086D   26117.95743056 -.01776400  00000+0 -55471-2 0  1178",
                        "2 70489  97.2802 153.4066 0001526  59.3944  24.7440 15.92412539    14"
                    ]
                },
                {
                    "noradId": "70488",
                    "tle": [
                        "1 70488C 26086C   26117.98590278 -.01770500  00000+0 -55205-2 0  1176",
                        "2 70488  97.2796 153.4386 0001324  72.4480 177.7047 15.92439352    11"
                    ]
                },
                {
                    "noradId": "70487",
                    "tle": [
                        "1 70487C 26086B   26117.94909722 -.01789500  00000+0 -56266-2 0  1177",
                        "2 70487  97.2802 153.3965 0001375  62.1212 332.0955 15.92285898    13"
                    ]
                },
                {
                    "noradId": "70486",
                    "tle": [
                        "1 70486C 26086A   26117.99354167 -.01798100  00000+0 -57434-2 0  1172",
                        "2 70486  97.2804 153.4433 0001379  79.0948 207.1177 15.91980700    13"
                    ]
                }
            ]
        }
    ],
    "config": {}
}